OBJECT_NAME,OBJECT_ID,EPOCH,MEAN_MOTION,ECCENTRICITY,INCLINATION,RA_OF_ASC_NODE,ARG_OF_PERICENTER,MEAN_ANOMALY,EPHEMERIS_TYPE,CLASSIFICATION_TYPE,NORAD_CAT_ID,ELEMENT_SET_NO,REV_AT_EPOCH,BSTAR,MEAN_MOTION_DOT,MEAN_MOTION_DDOT
STARLINK-34591,2025-144L,2026-06-14T02:10:55.979616,15.30176038,.00011736,53.1584,93.1021,100.0311,260.0822,0,U,64734,999,5445,.10937784E-2,.32152E-3,0
STARLINK-34587,2025-144M,2026-06-14T12:17:48.726528,15.30197254,.00014748,53.1600,91.4743,88.5982,271.5188,0,U,64735,999,5448,.74827569E-3,.21866E-3,0
STARLINK-34130,2025-144N,2026-06-14T11:53:29.517792,15.30201672,.0001002,53.1582,91.3580,102.0384,258.0729,0,U,64736,999,5453,.5606891E-3,.16284E-3,0
STARLINK-34619,2025-144P,2026-06-14T12:37:34.095648,15.30198687,.00013558,53.1600,91.5522,74.7189,285.3961,0,U,64737,999,5453,.70769119E-3,.20658E-3,0
STARLINK-34597,2025-144Q,2026-06-14T01:52:42.137472,15.30191874,.00011694,53.1588,93.0259,96.5998,263.5136,0,U,64738,999,5445,.68275064E-3,.19911E-3,0
STARLINK-34471,2025-144R,2026-06-14T12:13:15.017376,15.30203685,.00013269,53.1601,91.4463,99.2719,260.8432,0,U,64739,999,5447,.69700985E-3,.20343E-3,0
STARLINK-34208,2025-144S,2026-06-14T02:03:09.630432,15.34388526,.00010541,53.1580,89.5209,48.2711,311.8382,0,U,64740,999,5452,.90575586E-3,.30339E-3,0
STARLINK-34205,2025-144T,2026-06-14T11:59:34.347840,15.30202198,.0001184,53.1585,91.3876,96.8074,263.3061,0,U,64741,999,5453,.80562119E-3,.23578E-3,0
STARLINK-34607,2025-144U,2026-06-14T12:22:22.317312,15.30196909,.00014477,53.1598,91.4895,68.9594,291.1562,0,U,64742,999,5451,.52795557E-3,.15308E-3,0
STARLINK-34236,2025-144V,2026-06-14T11:58:03.074016,15.30203121,.00011599,53.1581,91.3763,86.4899,273.6235,0,U,64743,999,5453,.45778299E-3,.13225E-3,0
STARLINK-34185,2025-144W,2026-06-14T02:00:18.014112,15.30193299,.00013498,53.1590,93.0520,82.9752,277.1402,0,U,64744,999,5447,.73311889E-3,.21412E-3,0
STARLINK-34581,2025-144X,2026-06-14T12:34:31.599840,15.30194494,.00016332,53.1605,91.5376,67.3355,292.7818,0,U,64745,999,5453,.49270541E-3,.14259E-3,0
STARLINK-34592,2025-144Y,2026-06-14T10:52:04.785888,15.30192172,.00012249,53.1587,79.0253,76.3666,283.7471,0,U,64746,999,5470,.64423202E-3,.18765E-3,0
STARLINK-34589,2025-144Z,2026-06-14T11:02:42.029088,15.30195937,.00015125,53.1596,79.0019,66.9190,293.1970,0,U,64747,999,5470,.56329163E-3,.16359E-3,0
STARLINK-34536,2025-144AA,2026-06-14T12:07:10.408512,15.30200350,.00012071,53.1596,91.4165,90.2028,269.9111,0,U,64748,999,5453,.83919689E-3,.24578E-3,0
STARLINK-34595,2025-144AB,2026-06-14T12:08:41.600256,15.30201781,.00012376,53.1593,91.4202,87.0612,273.0531,0,U,64749,999,5453,.74550499E-3,.21787E-3,0
STARLINK-34531,2025-144AC,2026-06-14T11:44:22.585920,15.30195320,.00011195,53.1584,91.3206,78.0756,282.0370,0,U,64750,999,5453,.50388253E-3,.14592E-3,0
STARLINK-33965,2025-147A,2026-06-14T05:41:41.061120,15.34384302,.00014519,53.1583,152.8849,90.0422,270.0747,0,U,64755,999,5359,.10724935E-2,.36016E-3,0
STARLINK-34371,2025-147B,2026-06-14T20:37:59.774304,15.31696841,.0001264,53.1566,151.0736,88.9562,271.1585,0,U,64756,999,5358,.36579E-3,.11001E-3,0
STARLINK-34401,2025-147C,2026-06-14T06:15:00.745056,15.34393832,.0001114,53.1563,153.0236,71.8609,288.2515,0,U,64757,999,5348,.81303E-3,.27187E-3,0
STARLINK-34593,2025-147D,2026-06-14T16:23:06.608832,15.34369435,.0001283,53.1581,150.6808,103.5461,256.5684,0,U,64758,999,5362,.56218E-3,.18647E-3,0
STARLINK-34598,2025-147E,2026-06-14T16:11:07.002240,15.34403575,.000134,53.1580,151.3373,87.8180,272.2976,0,U,64759,999,5356,.91056E-3,.30517E-3,0
STARLINK-34235,2025-147F,2026-06-14T16:14:08.785248,15.34393407,.0000973,53.1588,151.3556,87.9273,272.1840,0,U,64760,999,5365,.62656E-3,.20848E-3,0
STARLINK-34635,2025-147G,2026-06-14T15:58:59.786400,15.34401023,.0001298,53.1577,151.2894,86.4064,273.7087,0,U,64761,999,5361,.71968E-3,.24018E-3,0
STARLINK-34638,2025-147H,2026-06-14T16:41:17.386368,15.34397867,.0001249,53.1573,150.7644,71.9391,288.1748,0,U,64762,999,5362,.55361E-3,.18373E-3,0
STARLINK-34534,2025-147J,2026-06-14T15:43:50.823840,15.34399669,.0001454,53.1568,151.2223,101.6128,258.5038,0,U,64763,999,5361,.69856E-3,.23299E-3,0
STARLINK-34261,2025-147K,2026-06-14T16:32:12.077088,15.34383766,.0001125,53.1587,150.7209,81.5017,278.6113,0,U,64764,999,5366,.69173E-3,.23055E-3,0
STARLINK-34566,2025-147L,2026-06-14T05:59:51.906912,15.34396815,.0001314,53.1572,152.9560,87.9440,272.1713,0,U,64765,999,5355,.96075E-3,.3222E-3,0
STARLINK-34645,2025-147M,2026-06-14T06:27:35.214912,15.30206381,.0001143,53.1566,154.4901,74.4710,285.6417,0,U,64766,999,5353,.37247E-3,.1069E-3,0
STARLINK-34639,2025-147N,2026-06-14T06:08:57.075360,15.34399574,.0001055,53.1573,152.9939,97.3954,262.7169,0,U,64767,999,5350,.31628E-3,.10325E-3,0
STARLINK-34609,2025-147P,2026-06-14T15:03:24.973632,15.30192525,.0001269,53.1573,142.5265,87.8061,272.3085,0,U,64768,999,5373,.63489E-3,.18487E-3,0
STARLINK-34246,2025-147Q,2026-06-14T05:50:48.170976,15.34390649,.0001051,53.1585,152.9219,81.8543,278.2579,0,U,64769,999,5355,.6578E-3,.21907E-3,0
STARLINK-34618,2025-147R,2026-06-14T16:20:04.951968,15.34394139,.0001398,53.1575,150.6686,85.8952,274.2210,0,U,64770,999,5355,.58305E-3,.1937E-3,0
STARLINK-34541,2025-147S,2026-06-14T20:00:04.998816,15.34360255,.0001145,53.1576,150.1363,89.6215,301.7727,0,U,64771,999,582,.18774E-2,.63514E-3,0
STARLINK-34652,2025-147T,2026-06-14T05:56:50.046144,15.34393288,.0001175,53.1572,152.9413,83.9095,276.2041,0,U,64772,999,5355,.56642E-3,.18805E-3,0
STARLINK-34612,2025-147U,2026-06-14T16:35:13.873056,15.34407732,.0001525,53.1587,150.7318,91.6586,268.4592,0,U,64773,999,5362,.66422E-3,.22137E-3,0
STARLINK-34621,2025-147V,2026-06-14T15:42:47.767392,15.30197436,.0001275,53.1567,152.6312,93.2527,266.8620,0,U,64774,999,5352,.66247E-3,.19311E-3,0
STARLINK-34657,2025-147W,2026-06-14T06:11:58.943040,15.34395999,.0001088,53.1566,153.0039,67.1056,293.0061,0,U,64775,999,5355,.63912E-3,.21276E-3,0
STARLINK-34637,2025-147X,2026-06-14T15:52:56.765568,15.34412362,.0001799,53.1563,151.2533,65.9260,294.1930,0,U,64776,999,5354,.61668E-3,.20525E-3,0
STARLINK-34547,2025-147Y,2026-06-14T16:29:10.231872,15.34395547,.0001391,53.1587,150.7042,88.0234,272.0928,0,U,64777,999,5356,.64932E-3,.21622E-3,0
STARLINK-34537,2025-147Z,2026-06-14T04:28:29.215200,15.30201449,.00013712,53.1581,131.6527,86.4366,273.6792,0,U,64778,999,5387,.57883763E-3,.16824E-3,0
STARLINK-34585,2025-147AA,2026-06-14T15:49:54.416640,15.34391728,.0001279,53.1560,151.2463,105.8224,254.2920,0,U,64779,999,5356,.57351E-3,.19045E-3,0
STARLINK-34491,2025-147AB,2026-06-14T16:26:08.399616,15.34396897,.0001395,53.1582,150.6866,89.5672,270.5490,0,U,64780,999,5362,.76574E-3,.25581E-3,0
STARLINK-34582,2025-147AC,2026-06-14T16:17:03.119712,15.34395944,.0001434,53.1575,150.6503,78.0016,282.1147,0,U,64781,999,5355,.53982E-3,.17904E-3,0
STARLINK-34482,2025-147AD,2026-06-14T15:40:49.077120,15.34390761,.0001273,53.1571,151.2029,91.8717,268.2432,0,U,64782,999,5365,.5254E-3,.17411E-3,0
STARLINK-34629,2025-150A,2026-06-14T15:38:45.195072,14.98333577,.0003547,70.0003,249.8680,270.0067,90.0686,0,U,64790,999,5104,.17508E-3,.1997E-4,0
STARLINK-34697,2025-150B,2026-06-14T15:44:31.532064,14.98334645,.0003653,70.0004,249.8760,270.4449,89.6291,0,U,64791,999,5104,.17829E-3,.2035E-4,0
STARLINK-34632,2025-150C,2026-06-14T14:44:40.691904,14.98325401,.0003404,70.0008,250.0149,268.2976,91.7793,0,U,64792,999,5103,-.13126E-3,-.1659E-4,0
STARLINK-34693,2025-150D,2026-06-14T15:14:44.875968,14.98331466,.0003375,70.0007,250.2030,269.7699,90.3074,0,U,64793,999,5103,.12169E-3,.1359E-4,0
STARLINK-34666,2025-150E,2026-06-14T15:14:30.696864,14.98332581,.0003277,70.0009,250.2089,269.1707,90.9076,0,U,64794,999,5103,.17127E-3,.1951E-4,0
STARLINK-34567,2025-150F,2026-06-14T15:26:29.537952,14.98334761,.0003749,70.0005,249.8339,270.0624,90.0106,0,U,64795,999,5104,.21703E-3,.2498E-4,0
STARLINK-34646,2025-150G,2026-06-14T14:50:42.141984,14.98331967,.0003469,70.0005,250.1430,268.4802,91.5959,0,U,64796,999,5192,.14153E-3,.1596E-4,0
STARLINK-34641,2025-150H,2026-06-14T15:56:32.698176,14.98327295,.0003334,70.0012,249.9058,261.5911,98.4870,0,U,64797,999,5187,-.95948E-4,-.1238E-4,0
STARLINK-34649,2025-150J,2026-06-14T14:50:27.809088,14.98333890,.0003627,70.0006,250.1499,268.7315,91.3429,0,U,64798,999,5192,.28521E-3,.3312E-4,0
STARLINK-34662,2025-150K,2026-06-14T15:26:43.907136,14.98331619,.0003385,70.0004,249.8362,269.3954,90.6817,0,U,64799,999,5104,.12875E-3,.1444E-4,0
STARLINK-34660,2025-150L,2026-06-14T15:50:32.061120,14.98334046,.0003622,70.0004,249.8916,268.0427,92.0317,0,U,64800,999,5104,.18196E-3,.2079E-4,0
STARLINK-34604,2025-150M,2026-06-14T14:32:25.908288,14.98342542,.0002889,70.0012,250.1029,261.6686,98.4146,0,U,64801,999,5103,-.46617E-3,-.5653E-4,0
STARLINK-34658,2025-150N,2026-06-14T15:08:31.463808,14.98323097,.0003432,70.0010,250.1880,269.7814,90.2952,0,U,64802,999,5103,.34844E-3,.4066E-4,0
STARLINK-34620,2025-150P,2026-06-14T15:08:44.175840,14.98331419,.0003525,70.0008,250.1871,268.7806,91.2949,0,U,64803,999,5103,.10381E-3,.1146E-4,0
STARLINK-34633,2025-150Q,2026-06-14T14:26:39.428736,14.98335690,.0003572,70.0007,250.0845,268.8903,91.1847,0,U,64804,999,5103,.12017E-3,.1341E-4,0
STARLINK-34624,2025-150R,2026-06-14T14:56:30.086880,14.98316924,.0003015,70.0010,250.1623,265.0077,95.0738,0,U,64805,999,5103,.16925E-3,.1926E-4,0
STARLINK-34664,2025-150S,2026-06-14T15:20:29.155776,14.98335218,.0003153,70.0008,249.8168,270.2002,89.8796,0,U,64806,999,5104,.37634E-3,.4401E-4,0
STARLINK-34663,2025-150T,2026-06-14T14:38:26.465856,14.98336387,.0003741,70.0002,250.1183,267.4504,92.6227,0,U,64807,999,5103,.20877E-3,.2399E-4,0
STARLINK-34696,2025-150U,2026-06-14T14:44:27.933216,14.98317903,.0003417,70.0009,250.1305,268.5481,91.5286,0,U,64808,999,5103,-.20272E-3,-.251E-4,0
STARLINK-34675,2025-150V,2026-06-14T14:26:25.172736,14.98335344,.0003633,70.0004,250.0896,268.3083,91.7659,0,U,64809,999,5103,.16653E-3,.1895E-4,0
